QIANFAN-73              
1 63159U 25046A   25353.86369636  .00000097  00000+0  13057-3 0  9990
2 63159  88.9767 319.2851 0016828 100.7612 259.5434 13.50978676 48378
QIANFAN-74              
1 63160U 25046B   25353.84707906  .00000051  00000+0  59761-4 0  9999
2 63160  88.9767 319.1756 0002036  75.4732 284.6645 13.50975427 48431
QIANFAN-75              
1 63161U 25046C   25353.90843298  .00000124  00000+0  17338-3 0  9996
2 63161  88.9768 319.4029 0017914 103.4025 256.9125 13.50980642 48314
QIANFAN-76              
1 63162U 25046D   25353.90508202  .00000063  00000+0  79411-4 0  9993
2 63162  88.9767 319.3839 0015451 103.5229 256.7645 13.50978062 48322
QIANFAN-77              
1 63163U 25046E   25353.85303351  .00000270  00000+0  18642-3 0  9994
2 63163  88.9769 317.3378 0016925  61.4712 298.8167 13.96093009 49446
QIANFAN-78              
1 63164U 25046F   25353.87189854  .00000119  00000+0  16502-3 0  9992
2 63164  88.9767 319.2512 0016790 105.8534 254.4469 13.50979066 48393
QIANFAN-79              
1 63165U 25046G   25353.90055133  .00000106  00000+0  14566-3 0  9993
2 63165  88.9770 319.3561 0016510 104.2010 256.0976 13.50980723 48343
QIANFAN-80              
1 63166U 25046H   25353.91708050  .00000121  00000+0  16811-3 0  9990
2 63166  88.9768 319.0610 0015424 107.6919 252.5917 13.50978675 48508
